{
  "type": "FeatureCollection",
  "features": [
    {
      "type": "Feature",
      "properties": {
        "norad_id": 38709,
        "name": "EXACTVIEW-1 (ADS-1B)",
        "group": "resource",
        "lat": 19.503592029582016,
        "lon": -82.56181829806108,
        "alt_km": 816.2674939107137,
        "timestamp": "2025-12-11T20:41:14.744162+00:00",
        "meta_object_name": "EXACTVIEW-1 (ADS-1B)",
        "meta_object_id": "2012-039C",
        "meta_epoch": "2025-12-11T13:11:50.647200",
        "meta_mean_motion": 14.24907409,
        "meta_eccentricity": 0.00107327,
        "meta_inclination": 98.9635,
        "meta_ra_of_asc_node": 93.915,
        "meta_arg_of_pericenter": 357.7015,
        "meta_mean_anomaly": 2.4112,
        "meta_ephemeris_type": 0,
        "meta_classification_type": "U",
        "meta_norad_cat_id": 38709,
        "meta_element_set_no": 999,
        "meta_rev_at_epoch": 69598,
        "meta_bstar": 0.00013961822,
        "meta_mean_motion_dot": 2.8e-06,
        "meta_mean_motion_ddot": 0,
        "tle_line1": "1 38709U 12039C   25345.54989175  .00000280  00000+0  13962-3 0  9992",
        "tle_line2": "2 38709  98.9635  93.9150 0010732 357.7015   2.4112 14.24907409695984"
      },
      "geometry": {
        "type": "Point",
        "coordinates": [
          -82.56181829806108,
          19.503592029582016
        ]
      }
    },
    {
      "type": "Feature",
      "properties": {
        "norad_id": 38755,
        "name": "SPOT 6",
        "group": "resource",
        "lat": 78.69124786263929,
        "lon": 4.837350321516362,
        "alt_km": 689.5796130206454,
        "timestamp": "2025-12-11T20:41:14.744172+00:00",
        "meta_object_name": "SPOT 6",
        "meta_object_id": "2012-047A",
        "meta_epoch": "2025-12-11T15:22:23.217600",
        "meta_mean_motion": 14.58602074,
        "meta_eccentricity": 0.00011147,
        "meta_inclination": 98.1568,
        "meta_ra_of_asc_node": 50.4449,
        "meta_arg_of_pericenter": 94.9284,
        "meta_mean_anomaly": 265.2043,
        "meta_ephemeris_type": 0,
        "meta_classification_type": "U",
        "meta_norad_cat_id": 38755,
        "meta_element_set_no": 999,
        "meta_rev_at_epoch": 70571,
        "meta_bstar": 0.00018500083,
        "meta_mean_motion_dot": 8.16e-06,
        "meta_mean_motion_ddot": 0,
        "tle_line1": "1 38755U 12047A   25345.64054650  .00000816  00000+0  18500-3 0  9992",
        "tle_line2": "2 38755  98.1568  50.4449 0001114  94.9284 265.2043 14.58602074705715"
      },
      "geometry": {
        "type": "Point",
        "coordinates": [
          4.837350321516362,
          78.69124786263929
        ]
      }
    },
    {
      "type": "Feature",
      "properties": {
        "norad_id": 39019,
        "name": "PLEIADES 1B",
        "group": "resource",
        "lat": -19.04722382541108,
        "lon": 61.373297114637566,
        "alt_km": 703.0882724890125,
        "timestamp": "2025-12-11T20:41:14.744182+00:00",
        "meta_object_name": "PLEIADES 1B",
        "meta_object_id": "2012-068A",
        "meta_epoch": "2025-12-11T15:50:10.155264",
        "meta_mean_motion": 14.58551787,
        "meta_eccentricity": 0.00012255,
        "meta_inclination": 98.179,
        "meta_ra_of_asc_node": 58.3282,
        "meta_arg_of_pericenter": 80.8353,
        "meta_mean_anomaly": 279.2985,
        "meta_ephemeris_type": 0,
        "meta_classification_type": "U",
        "meta_norad_cat_id": 39019,
        "meta_element_set_no": 999,
        "meta_rev_at_epoch": 69351,
        "meta_bstar": 0.00019485111,
        "meta_mean_motion_dot": 8.6e-06,
        "meta_mean_motion_ddot": 0,
        "tle_line1": "1 39019U 12068A   25345.65983976  .00000860  00000+0  19485-3 0  9994",
        "tle_line2": "2 39019  98.1790  58.3282 0001225  80.8353 279.2985 14.58551787693510"
      },
      "geometry": {
        "type": "Point",
        "coordinates": [
          61.373297114637566,
          -19.04722382541108
        ]
      }
    },
    {
      "type": "Feature",
      "properties": {
        "norad_id": 39030,
        "name": "GOKTURK 2",
        "group": "resource",
        "lat": 36.07971741562092,
        "lon": 13.20840524924636,
        "alt_km": 641.2410102169597,
        "timestamp": "2025-12-11T20:41:14.744192+00:00",
        "meta_object_name": "GOKTURK 2",
        "meta_object_id": "2012-073A",
        "meta_epoch": "2025-12-11T15:09:21.792672",
        "meta_mean_motion": 14.75288103,
        "meta_eccentricity": 9.789e-05,
        "meta_inclination": 97.6894,
        "meta_ra_of_asc_node": 187.3395,
        "meta_arg_of_pericenter": 103.9749,
        "meta_mean_anomaly": 256.1569,
        "meta_ephemeris_type": 0,
        "meta_classification_type": "U",
        "meta_norad_cat_id": 39030,
        "meta_element_set_no": 999,
        "meta_rev_at_epoch": 69685,
        "meta_bstar": 0.00012508539,
        "meta_mean_motion_dot": 8e-06,
        "meta_mean_motion_ddot": 0,
        "tle_line1": "1 39030U 12073A   25345.63150223  .00000800  00000+0  12509-3 0  9996",
        "tle_line2": "2 39030  97.6894 187.3395 0000978 103.9749 256.1569 14.75288103696850"
      },
      "geometry": {
        "type": "Point",
        "coordinates": [
          13.20840524924636,
          36.07971741562092
        ]
      }
    },
    {
      "type": "Feature",
      "properties": {
        "norad_id": 39084,
        "name": "LANDSAT 8",
        "group": "resource",
        "lat": 24.165459567297788,
        "lon": -122.33861099368212,
        "alt_km": 701.6219704378955,
        "timestamp": "2025-12-11T20:41:14.744202+00:00",
        "meta_object_name": "LANDSAT 8",
        "meta_object_id": "2013-008A",
        "meta_epoch": "2025-12-11T15:01:55.840800",
        "meta_mean_motion": 14.57112419,
        "meta_eccentricity": 0.00010948,
        "meta_inclination": 98.2074,
        "meta_ra_of_asc_node": 53.7162,
        "meta_arg_of_pericenter": 88.0236,
        "meta_mean_anomaly": 272.1088,
        "meta_ephemeris_type": 0,
        "meta_classification_type": "U",
        "meta_norad_cat_id": 39084,
        "meta_element_set_no": 999,
        "meta_rev_at_epoch": 67058,
        "meta_bstar": 0.00016165426,
        "meta_mean_motion_dot": 6.83e-06,
        "meta_mean_motion_ddot": 0,
        "tle_line1": "1 39084U 13008A   25345.62634075  .00000683  00000+0  16165-3 0  9996",
        "tle_line2": "2 39084  98.2074  53.7162 0001094  88.0236 272.1088 14.57112419670580"
      },
      "geometry": {
        "type": "Point",
        "coordinates": [
          -122.33861099368212,
          24.165459567297788
        ]
      }
    },
    {
      "type": "Feature",
      "properties": {
        "norad_id": 39086,
        "name": "SARAL",
        "group": "resource",
        "lat": -37.60848267873903,
        "lon": -16.85143444629115,
        "alt_km": 789.5218458337158,
        "timestamp": "2025-12-11T20:41:14.744213+00:00",
        "meta_object_name": "SARAL",
        "meta_object_id": "2013-009A",
        "meta_epoch": "2025-12-11T14:38:42.461952",
        "meta_mean_motion": 14.32756404,
        "meta_eccentricity": 0.00028478,
        "meta_inclination": 98.5503,
        "meta_ra_of_asc_node": 169.5554,
        "meta_arg_of_pericenter": 110.748,
        "meta_mean_anomaly": 249.4009,
        "meta_ephemeris_type": 0,
        "meta_classification_type": "U",
        "meta_norad_cat_id": 39086,
        "meta_element_set_no": 999,
        "meta_rev_at_epoch": 66874,
        "meta_bstar": 9.1960134e-05,
        "meta_mean_motion_dot": 2.07e-06,
        "meta_mean_motion_ddot": 0,
        "tle_line1": "1 39086U 13009A   25345.61021368  .00000207  00000+0  91960-4 0  9992",
        "tle_line2": "2 39086  98.5503 169.5554 0002847 110.7480 249.4009 14.32756404668740"
      },
      "geometry": {
        "type": "Point",
        "coordinates": [
          -16.85143444629115,
          -37.60848267873903
        ]
      }
    },
    {
      "type": "Feature",
      "properties": {
        "norad_id": 39150,
        "name": "GAOFEN-1",
        "group": "resource",
        "lat": -37.39953443150086,
        "lon": -129.58285287632174,
        "alt_km": 642.7704681251662,
        "timestamp": "2025-12-11T20:41:14.744222+00:00",
        "meta_object_name": "GAOFEN-1",
        "meta_object_id": "2013-018A",
        "meta_epoch": "2025-12-11T14:49:35.398848",
        "meta_mean_motion": 14.76530329,
        "meta_eccentricity": 0.00181228,
        "meta_inclination": 97.9321,
        "meta_ra_of_asc_node": 56.2965,
        "meta_arg_of_pericenter": 146.4091,
        "meta_mean_anomaly": 213.8272,
        "meta_ephemeris_type": 0,
        "meta_classification_type": "U",
        "meta_norad_cat_id": 39150,
        "meta_element_set_no": 999,
        "meta_rev_at_epoch": 68056,
        "meta_bstar": 0.00018408549,
        "meta_mean_motion_dot": 1.235e-05,
        "meta_mean_motion_ddot": 0,
        "tle_line1": "1 39150U 13018A   25345.61777082  .00001235  00000+0  18409-3 0  9993",
        "tle_line2": "2 39150  97.9321  56.2965 0018122 146.4091 213.8272 14.76530329680563"
      },
      "geometry": {
        "type": "Point",
        "coordinates": [
          -129.58285287632174,
          -37.39953443150086
        ]
      }
    }
  ]
}